[{"OBJECT_NAME":"STARLINK-30495","OBJECT_ID":"2023-151E","EPOCH":"2026-03-09T03:34:02.021664","MEAN_MOTION":15.26761318,"ECCENTRICITY":0.00013376,"INCLINATION":43.0042,"RA_OF_ASC_NODE":339.0612,"ARG_OF_PERICENTER":263.7152,"MEAN_ANOMALY":96.3547,"EPHEMERIS_TYPE":0,"CLASSIFICATION_TYPE":"U","NORAD_CAT_ID":57968,"ELEMENT_SET_NO":999,"REV_AT_EPOCH":13568,"BSTAR":5.7760532e-5,"MEAN_MOTION_DOT":1.291e-5,"MEAN_MOTION_DDOT":0},{"OBJECT_NAME":"TRANSPORTER-12 OBJECT BT","OBJECT_ID":"2025-009BT","EPOCH":"2026-03-09T17:08:24.281088","MEAN_MOTION":15.27872239,"ECCENTRICITY":0.00036816,"INCLINATION":97.4094,"RA_OF_ASC_NODE":151.5992,"ARG_OF_PERICENTER":313.5044,"MEAN_ANOMALY":46.5889,"EPHEMERIS_TYPE":0,"CLASSIFICATION_TYPE":"U","NORAD_CAT_ID":62674,"ELEMENT_SET_NO":999,"REV_AT_EPOCH":12136,"BSTAR":0.000510288,"MEAN_MOTION_DOT":0.00013824,"MEAN_MOTION_DDOT":0}]
